     2.10           N: GPS NAV DATA                         RINEX VERSION / TYPE
CONVBIN 2.4.3                           20180518 185550 UTC PGM / RUN BY / DATE 
log: 2018_05_18_1448.nvs                                    COMMENT             
format: NVS BINR                                            COMMENT             
                                                            END OF HEADER       
17 18  5 18 20  0  0.0 -.967970117927E-04  .363797880709E-11  .000000000000E+00
     .580000000000E+02 -.925312500000E+02  .425196293105E-08  .248550625332E+01
    -.486709177494E-05  .123554536840E-01  .210665166378E-05  .515356162643E+04
     .504000000000E+06  .670552253723E-07  .278119638596E+01 -.124797224998E-06
     .982839430270E+00  .346562500000E+03 -.177771751641E+01 -.803319175754E-08
    -.311084386485E-09  .100000000000E+01  .200100000000E+04  .000000000000E+00
     .200000000000E+01  .000000000000E+00 -.111758708954E-07  .580000000000E+02
     .499732500000E+06  .000000000000E+00
19 18  5 18 20  0  0.0 -.435349524021E-03  .295585778076E-11  .000000000000E+00
     .960000000000E+02 -.879375000000E+02  .440304043225E-08 -.819233701606E+00
    -.439770519733E-05  .988121749833E-02  .303983688354E-05  .515371373367E+04
     .504000000000E+06 -.931322574615E-07  .282819393272E+01  .216066837311E-06
     .980377868719E+00  .332187500000E+03  .117944465409E+01 -.836499129261E-08
    -.252510518077E-09  .100000000000E+01  .200100000000E+04  .000000000000E+00
     .200000000000E+01  .000000000000E+00 -.153668224812E-07  .960000000000E+02
     .499742500000E+06  .000000000000E+00
18 18  5 18 20  0  0.0  .106822699308E-04  .466116034659E-11  .000000000000E+00
     .660000000000E+02 -.983750000000E+02  .463626446262E-08  .156141225737E+00
    -.497885048389E-05  .145118635846E-01  .109858810902E-04  .515366499901E+04
     .504000000000E+06 -.193715095520E-06 -.254702174936E+01  .949949026108E-07
     .949741716258E+00  .162468750000E+03  .130332193549E+01 -.830284584686E-08
    -.114290474943E-10  .100000000000E+01  .200100000000E+04  .000000000000E+00
     .200000000000E+01  .000000000000E+00 -.698491930962E-08  .660000000000E+02
     .499752500000E+06  .000000000000E+00
28 18  5 18 20  0  0.0  .716308116913E-03  .329691829393E-11  .000000000000E+00
     .560000000000E+02  .119781250000E+03  .412588626458E-08 -.279031823463E+01
     .606849789619E-05  .194985455601E-01  .315718352795E-05  .515368274689E+04
     .504000000000E+06  .277534127235E-06  .176994605523E+01  .145286321640E-06
     .985717320752E+00  .327906250000E+03 -.152099449043E+01 -.782925469131E-08
     .405016870578E-09  .100000000000E+01  .200100000000E+04  .000000000000E+00
     .200000000000E+01  .000000000000E+00 -.111758708954E-07  .560000000000E+02
     .499757500000E+06  .000000000000E+00
13 18  5 18 20  0  0.0 -.943499654531E-04  .341060513165E-12  .000000000000E+00
     .880000000000E+02 -.559375000000E+01  .454947537976E-08  .122221117990E+01
    -.292435288429E-06  .339295470621E-02  .715255737305E-05  .515365168190E+04
     .504000000000E+06 -.260770320892E-07 -.291590331051E+00 -.726431608200E-07
     .968699551687E+00  .244750000000E+03  .158437425173E+01 -.802390565645E-08
    -.352157525917E-09  .100000000000E+01  .200100000000E+04  .000000000000E+00
     .200000000000E+01  .000000000000E+00 -.111758708954E-07  .880000000000E+02
     .499782500000E+06  .000000000000E+00
 1 18  5 18 20  0  0.0 -.488786026835E-04 -.295585778076E-11  .000000000000E+00
     .950000000000E+02 -.100093750000E+03  .410695696201E-08  .433588660205E+00
    -.503472983837E-05  .777489400934E-02  .109318643808E-04  .515367733574E+04
     .504000000000E+06  .000000000000E+00 -.250008940047E+01  .113621354103E-06
     .971353264602E+00  .170000000000E+03  .624150898596E+00 -.788997150613E-08
    -.178578867098E-10  .100000000000E+01  .200100000000E+04  .000000000000E+00
     .200000000000E+01  .000000000000E+00  .558793544769E-08  .950000000000E+02
     .499812500000E+06  .000000000000E+00
 7 18  5 18 20  0  0.0  .189715534449E-03 -.613908923697E-11  .000000000000E+00
     .970000000000E+02  .788125000000E+02  .434018099238E-08 -.253940295393E+00
     .421889126301E-05  .115834265016E-01  .109765678644E-04  .515367077065E+04
     .504000000000E+06  .782310962677E-07  .654172142701E+00  .115483999252E-06
     .959004761392E+00  .168656250000E+03 -.253411573977E+01 -.801604818630E-08
    -.228223792151E-09  .100000000000E+01  .200100000000E+04  .000000000000E+00
     .200000000000E+01  .000000000000E+00 -.111758708954E-07  .970000000000E+02
     .499822500000E+06  .000000000000E+00
 8 18  5 18 19 59 44.0 -.101716257632E-03 -.136424205266E-11  .000000000000E+00
     .180000000000E+02 -.905937500000E+02  .466233692278E-08  .289915387134E+01
    -.454857945442E-05  .348601676524E-02  .241957604885E-05  .515356933022E+04
     .503984000000E+06 -.139698386192E-06  .271881248566E+01  .987201929092E-07
     .969339158490E+00  .338500000000E+03 -.440499078520E+00 -.836284834620E-08
    -.174292974288E-09  .100000000000E+01  .200100000000E+04  .000000000000E+00
     .200000000000E+01  .000000000000E+00  .512227416039E-08  .180000000000E+02
     .499867500000E+06  .000000000000E+00
30 18  5 18 20  0  0.0  .726720318198E-04 -.420641299570E-11  .000000000000E+00
     .420000000000E+02  .788125000000E+02  .461697824070E-08 -.146597759688E+00
     .412575900555E-05  .339750573039E-02  .113230198622E-04  .515374224663E+04
     .504000000000E+06  .316649675369E-07  .687872065478E+00 -.223517417908E-07
     .944591959349E+00  .150718750000E+03 -.309385338250E+01 -.804462080503E-08
    -.213223167315E-09  .100000000000E+01  .200100000000E+04  .000000000000E+00
     .200000000000E+01  .000000000000E+00  .372529029846E-08  .420000000000E+02
     .499957500000E+06  .000000000000E+00
11 18  5 18 20  0  0.0 -.736014008522E-03  .795807864051E-12  .000000000000E+00
     .940000000000E+02 -.131750000000E+03  .584667210479E-08 -.261950013258E+00
    -.670924782753E-05  .168005970772E-01  .794231891632E-05  .515363815498E+04
     .504000000000E+06 -.206753611565E-06 -.292626620817E+01 -.186264514923E-08
     .905563047330E+00  .197000000000E+03  .175955872683E+01 -.907537802592E-08
    -.133219834855E-09  .100000000000E+01  .200100000000E+04  .000000000000E+00
     .200000000000E+01  .000000000000E+00 -.121071934700E-07  .940000000000E+02
     .500052500000E+06  .000000000000E+00
